NORAD_CAT_ID,OBJECT_NAME,OBJECT_TYPE,EPOCH,MEAN_MOTION,ECCENTRICITY,INCLINATION,RA_OF_ASC_NODE,ARG_OF_PERICENTER,MEAN_ANOMALY,BSTAR,MEAN_MOTION_DOT,MEAN_MOTION_DDOT,TLE_LINE0,TLE_LINE1,TLE_LINE2,SEMIMAJOR_AXIS,PERIOD,APOGEE,PERIGEE,DECAYED
53621.0,STARLINK-4608,PAYLOAD,2023-01-13 16:32:10,15.08828262,0.0002429,53.2172,1.1141,36.024,324.0915,8.8125e-05,1.114e-05,0.0,0 STARLINK-4608,1 53621U 22104AK  23013.68901379  .00001114  00000-0  88125-4 0  9993,2 53621  53.2172   1.1141 0002429  36.0240 324.0915 15.08828262 21301,6917.916,95.438,541.462,538.101,0.0
53621.0,STARLINK-4608,PAYLOAD,2023-01-14 05:15:15,15.08856506,0.0002276999999999,53.2176,358.7343,37.1422,322.9727,0.0010092,0.00015817,0.0,0 STARLINK-4608,1 53621U 22104AK  23014.21893138  .00015817  00000-0  10092-2 0  9997,2 53621  53.2176 358.7343 0002277  37.1422 322.9727 15.08856506 21383,6917.83,95.437,541.27,538.12,0.0
53621.0,STARLINK-4608,PAYLOAD,2023-01-14 22:44:30,15.08849391,0.000242,53.2173,355.4649,58.7627,301.3602,0.00088,0.00013749,0.0,0 STARLINK-4608,1 53621U 22104AK  23014.94757652  .00013749  00000-0  88000-3 0  9994,2 53621  53.2173 355.4649 0002420  58.7627 301.3602 15.08849391 21498,6917.852,95.437,541.391,538.043,0.0
53621.0,STARLINK-4608,PAYLOAD,2023-01-15 08:16:49,15.088626199999998,0.0001999,53.2181,353.6803,51.9427,308.1745,0.0026596999999999,0.00042322,0.0,0 STARLINK-4608,1 53621U 22104AK  23015.34501453  .00042322  00000-0  26597-2 0  9996,2 53621  53.2181 353.6803 0001999  51.9427 308.1745 15.08862620 22126,6917.811,95.436,541.059,538.293,0.0
53621.0,STARLINK-4608,PAYLOAD,2023-01-15 17:49:08,15.08863222,0.0002444,53.2155,351.8966,59.6652,300.4582,0.0013645,0.00021509,0.0,0 STARLINK-4608,1 53621U 22104AK  23015.74245411  .00021509  00000-0  13645-2 0  9993,2 53621  53.2155 351.8966 0002444  59.6652 300.4582 15.08863222 21614,6917.809,95.436,541.365,537.984,0.0
53621.0,STARLINK-4608,PAYLOAD,2023-01-16 08:07:35,15.08890658,0.0001737,53.2187,349.2212,59.9476,300.1688,0.0023541,0.00037429,0.0,0 STARLINK-4608,1 53621U 22104AK  23016.33860271  .00037429  00000-0  23541-2 0  9990,2 53621  53.2187 349.2212 0001737  59.9476 300.1688 15.08890658 22275,6917.726,95.434,540.7919999999999,538.389,0.0
53621.0,STARLINK-4608,PAYLOAD,2023-01-16 22:26:05,15.08830548,0.0002868,53.219,346.5452,62.6542,297.4742,0.00097379,0.0001524,0.0,0 STARLINK-4608,1 53621U 22104AK  23016.93478014  .00015240  00000-0  97379-3 0  9994,2 53621  53.2190 346.5452 0002868  62.6542 297.4742 15.08830548 21793,6917.909000000001,95.438,541.758,537.79,0.0
53621.0,STARLINK-4608,PAYLOAD,2023-01-17 14:19:57,15.08824403,0.0001716,53.2189,343.5726,88.7167,271.4021,0.00067837,0.0001052,0.0,0 STARLINK-4608,1 53621U 22104AK  23017.59718769  .00010520  00000-0  67837-3 0  9993,2 53621  53.2189 343.5726 0001716  88.7167 271.4021 15.08824403 21891,6917.928000000001,95.439,540.98,538.606,0.0
53621.0,STARLINK-4608,PAYLOAD,2023-01-17 20:41:29,15.08833962,0.0001523,53.2188,342.3833,90.2007,269.9159,0.0010389,0.00016282,0.0,0 STARLINK-4608,1 53621U 22104AK  23017.86214916  .00016282  00000-0  10389-2 0  9998,2 53621  53.2188 342.3833 0001523  90.2007 269.9159 15.08833962 22506,6917.899,95.438,540.817,538.71,0.0
53621.0,STARLINK-4608,PAYLOAD,2023-01-18 04:38:25,15.0885451,0.0001571999999999,53.2187,340.8959,90.1497,269.9676,0.0017966999999999,0.00028434,0.0,0 STARLINK-4608,1 53621U 22104AK  23018.19334851  .00028434  00000-0  17967-2 0  9997,2 53621  53.2187 340.8959 0001572  90.1497 269.9676 15.08854510 21980,6917.835999999999,95.437,540.789,538.614,0.0
53621.0,STARLINK-4608,PAYLOAD,2023-01-18 14:10:43,15.08861132,0.0001881,53.2183,339.11,88.21700000000001,271.9038,0.0015328,0.00024205,0.0,0 STARLINK-4608,1 53621U 22104AK  23018.59078678  .00024205  00000-0  15328-2 0  9994,2 53621  53.2183 339.1100 0001881  88.2170 271.9038 15.08861132 22045,6917.816,95.436,540.982,538.38,0.0
53621.0,STARLINK-4608,PAYLOAD,2023-01-19 06:04:34,15.08874966,0.0001559,53.2186,336.1388,94.0431,266.0739,0.0012085,0.00019016,0.0,0 STARLINK-4608,1 53621U 22104AK  23019.25317429  .00019016  00000-0  12085-2 0  9999,2 53621  53.2186 336.1388 0001559  94.0431 266.0739 15.08874966 22143,6917.774,95.435,540.717,538.56,0.0
53621.0,STARLINK-4608,PAYLOAD,2023-01-20 10:41:31,15.08846024,0.0001231999999999,53.2182,330.7843,108.8979,251.2147,0.0014869,0.00023459,0.0,0 STARLINK-4608,1 53621U 22104AK  23020.44550640  .00023459  00000-0  14869-2 0  9994,2 53621  53.2182 330.7843 0001232 108.8979 251.2147 15.08846024 22327,6917.861999999999,95.437,540.5790000000001,538.875,0.0
53621.0,STARLINK-4608,PAYLOAD,2023-01-20 13:52:18,15.08815441,0.0001386999999999,53.2188,330.19,129.7718,230.3396,0.0013026,0.0002049,0.0,0 STARLINK-4608,1 53621U 22104AK  23020.57798714  .00020490  00000-0  13026-2 0  9990,2 53621  53.2188 330.1900 0001387 129.7718 230.3396 15.08815441 22340,6917.955,95.439,540.78,538.861,0.0
53621.0,STARLINK-4608,PAYLOAD,2023-01-21 02:35:23,15.08855995,0.0001443999999999,53.2176,327.8114,127.4567,232.6556,0.0023881999999999,0.00037942,0.0,0 STARLINK-4608,1 53621U 22104AK  23021.10790828  .00037942  00000-0  23882-2 0  9999,2 53621  53.2176 327.8114 0001444 127.4567 232.6556 15.08855995 22428,6917.831,95.437,540.695,538.698,0.0
53621.0,STARLINK-4608,PAYLOAD,2023-01-21 13:43:05,15.08845384,0.0002249,53.2189,325.728,104.069,256.0552,0.00075438,0.0001174,0.0,0 STARLINK-4608,1 53621U 22104AK  23021.57159173  .00011740  00000-0  75438-3 0  9995,2 53621  53.2189 325.7280 0002249 104.0690 256.0552 15.08845384 22499,6917.8640000000005,95.437,541.285,538.173,0.0
53621.0,STARLINK-4608,PAYLOAD,2023-01-22 13:33:52,15.08843568,7.65e-05,53.2196,321.2684,119.4367,240.6701,0.00055176,8.505e-05,0.0,0 STARLINK-4608,1 53621U 22104AK  23022.56518842  .00008505  00000-0  55176-3 0  9999,2 53621  53.2196 321.2684 0000765 119.4367 240.6701 15.08843568 22642,6917.869000000001,95.437,540.264,539.205,0.0
53621.0,STARLINK-4608,PAYLOAD,2023-01-23 05:27:44,15.08838892,0.0001833,53.2202,318.2915,120.9727,239.1445,0.00051421,7.905e-05,0.0,0 STARLINK-4608,1 53621U 22104AK  23023.22759462  .00007905  00000-0  51421-3 0  9990,2 53621  53.2202 318.2915 0001833 120.9727 239.1445 15.08838892 22740,6917.884,95.438,541.0169999999999,538.481,0.0
53621.0,STARLINK-4608,PAYLOAD,2023-01-24 05:18:30,15.0886739,0.0001242999999999,53.2189,313.8347,81.0644,279.0488,0.0010417999999999,0.00016343,0.0,0 STARLINK-4608,1 53621U 22104AK  23024.22118944  .00016343  00000-0  10418-2 0  9991,2 53621  53.2189 313.8347 0001243  81.0644 279.0488 15.08867390 22895,6917.797,95.436,540.5219999999999,538.802,0.0
53621.0,STARLINK-4608,PAYLOAD,2023-01-25 01:58:31,15.08852501,0.0001097999999999,53.2187,309.9666,116.3548,243.7557,0.00054247,8.359e-05,0.0,0 STARLINK-4608,1 53621U 22104AK  23025.08230944  .00008359  00000-0  54247-3 0  9998,2 53621  53.2187 309.9666 0001098 116.3548 243.7557 15.08852501 23025,6917.842,95.437,540.467,538.948,0.0
53621.0,STARLINK-4608,PAYLOAD,2023-01-25 05:09:17,15.08851923,0.0001062,53.2185,309.3723,116.1315,243.9787,0.00049849,7.657e-05,0.0,0 STARLINK-4608,1 53621U 22104AK  23025.21478868  .00007657  00000-0  49849-3 0  9994,2 53621  53.2185 309.3723 0001062 116.1315 243.9787 15.08851923 23611,6917.844,95.437,540.444,538.974,0.0
53621.0,STARLINK-4608,PAYLOAD,2023-01-26 01:49:18,15.08846817,9.25e-05,53.2176,305.5099,75.7785,284.331,0.0005863,9.057e-05,0.0,0 STARLINK-4608,1 53621U 22104AK  23026.07591167  .00009057  00000-0  58630-3 0  9991,2 53621  53.2176 305.5099 0000925  75.7785 284.3310 15.08846817 23171,6917.86,95.437,540.364,539.085,0.0
53621.0,STARLINK-4608,PAYLOAD,2023-01-26 22:29:19,15.08850064,7.57e-05,53.2162,301.6466,76.5406,283.567,0.00050441,7.751e-05,0.0,0 STARLINK-4608,1 53621U 22104AK  23026.93703136  .00007751  00000-0  50441-3 0  9998,2 53621  53.2162 301.6466 0000757  76.5406 283.5670 15.08850064 23307,6917.85,95.437,540.238,539.191,0.0
53621.0,STARLINK-4608,PAYLOAD,2023-01-27 01:40:05,15.08857008,7.609999999999999e-05,53.216,301.0521,80.3566,279.7512,0.0007012,0.00010895,0.0,0 STARLINK-4608,1 53621U 22104AK  23027.06950936  .00010895  00000-0  70120-3 0  9994,2 53621  53.2160 301.0521 0000761  80.3566 279.7512 15.08857008 23897,6917.828,95.436,540.22,539.1669999999999,0.0
53621.0,STARLINK-4608,PAYLOAD,2023-01-27 20:44:44,15.08835178,0.0001639,53.2162,297.4832,52.8475,307.2666,0.00017088,2.432e-05,0.0,0 STARLINK-4608,1 53621U 22104AK  23027.86439843  .00002432  00000-0  17088-3 0  9993,2 53621  53.2162 297.4832 0001639  52.8475 307.2666 15.08835178 24016,6917.895,95.438,540.894,538.626,0.0
53621.0,STARLINK-4608,PAYLOAD,2023-01-28 03:06:16,15.08840401,0.0001219,53.2158,296.2936,72.8541,287.2584,0.00023743,3.493e-05,0.0,0 STARLINK-4608,1 53621U 22104AK  23028.12935679  .00003493  00000-0  23743-3 0  9994,2 53621  53.2158 296.2936 0001219  72.8541 287.2584 15.08840401 23484,6917.879,95.438,540.587,538.901,0.0
53621.0,STARLINK-4608,PAYLOAD,2023-01-28 17:24:44,15.08838677,0.0001298,53.216,293.616,76.715,283.3987,0.00025626,3.793e-05,0.0,0 STARLINK-4608,1 53621U 22104AK  23028.72551921  .00003793  00000-0  25626-3 0  9999,2 53621  53.2160 293.6160 0001298  76.7150 283.3987 15.08838677 24143,6917.884,95.438,540.647,538.851,0.0
53621.0,STARLINK-4608,PAYLOAD,2023-01-29 17:15:31,15.08840014,0.000145,53.2176,289.1555,93.8525,266.2633,0.00013009,1.783e-05,0.0,0 STARLINK-4608,1 53621U 22104AK  23029.71911901  .00001783  00000-0  13009-3 0  9996,2 53621  53.2176 289.1555 0001450  93.8525 266.2633 15.08840014 23723,6917.88,95.438,540.748,538.742,0.0
53621.0,STARLINK-4608,PAYLOAD,2023-01-30 12:20:09,15.08842049,0.0001214,53.2165,285.5866,78.0386,282.0742,0.00015458,2.173e-05,0.0,0 STARLINK-4608,1 53621U 22104AK  23030.51399985  .00002173  00000-0  15458-3 0  9992,2 53621  53.2165 285.5866 0001214  78.0386 282.0742 15.08842049 24418,6917.874,95.437,540.579,538.899,0.0
